start=new Date('2022-10-03T00:00:00.000Z').valueOf();
sats=[{"TIME_SYSTEM":"UTC","LAUNCH_DATE":"2020-11-25","DECAY_DATE":null,"MEAN_MOTION_DDOT":"0.0000000000000","MEAN_ELEMENT_THEORY":"SGP4","SEMIMAJOR_AXIS":"6925.382","PERIOD":"95.593","TLE_LINE2":"2 47144  53.0540 150.3451 0001186  99.2475 260.8648 15.06389174103136","OBJECT_ID":"2020-088Y","REF_FRAME":"TEME","SITE":"AFETR","COUNTRY_CODE":"US","OBJECT_NAME":"STARLINK-1857","RA_OF_ASC_NODE":"150.3451","APOAPSIS":"548.068","RCS_SIZE":"LARGE","NORAD_CAT_ID":"47144","OBJECT_TYPE":"PAYLOAD","MEAN_ANOMALY":"260.8648","CENTER_NAME":"EARTH","PERIAPSIS":"546.425","REV_AT_EPOCH":"10313","GP_ID":"214048613","MEAN_MOTION":"15.06389174","INCLINATION":"53.0540","CLASSIFICATION_TYPE":"U","MEAN_MOTION_DOT":"-0.00001190","ECCENTRICITY":"0.00011860","BSTAR":"-0.00006102500000","ELEMENT_SET_NO":"999","EPHEMERIS_TYPE":"0","EPOCH":"2022-10-02T20:16:22.061856","FILE":"3589751","ARG_OF_PERICENTER":"99.2475","TLE_LINE1":"1 47144U 20088Y   22275.84469979 -.00001190  00000-0 -61025-4 0  9993"},{"OBJECT_TYPE":"PAYLOAD","NORAD_CAT_ID":"47147","OBJECT_NAME":"STARLINK-1860","RA_OF_ASC_NODE":"170.2400","COUNTRY_CODE":"US","RCS_SIZE":"LARGE","APOAPSIS":"548.227","OBJECT_ID":"2020-088AB","SITE":"AFETR","REF_FRAME":"TEME","PERIOD":"95.593","TLE_LINE2":"2 47147  53.0523 170.2400 0001426  83.3748 276.7403 15.06391617102868","MEAN_MOTION_DDOT":"0.0000000000000","DECAY_DATE":null,"MEAN_ELEMENT_THEORY":"SGP4","SEMIMAJOR_AXIS":"6925.374","TIME_SYSTEM":"UTC","LAUNCH_DATE":"2020-11-25","FILE":"3589751","TLE_LINE1":"1 47147U 20088AB  22275.86865510 -.00003120  00000-0 -19069-3 0  9994","ARG_OF_PERICENTER":"83.3748","BSTAR":"-0.00019069000000","ELEMENT_SET_NO":"999","EPHEMERIS_TYPE":"0","EPOCH":"2022-10-02T20:50:51.800640","ECCENTRICITY":"0.00014260","MEAN_MOTION":"15.06391617","INCLINATION":"53.0523","MEAN_MOTION_DOT":"-0.00003120","CLASSIFICATION_TYPE":"U","GP_ID":"214047380","REV_AT_EPOCH":"10286","PERIAPSIS":"546.252","CENTER_NAME":"EARTH","MEAN_ANOMALY":"276.7403"},{"BSTAR":"0.00015081000000","ELEMENT_SET_NO":"999","EPHEMERIS_TYPE":"0","EPOCH":"2022-10-02T20:15:01.480032","FILE":"3589751","ARG_OF_PERICENTER":"78.8712","TLE_LINE1":"1 47148U 20088AC  22275.84376713  .00001966  00000-0  15081-3 0  9999","MEAN_MOTION":"15.06400776","INCLINATION":"53.0520","MEAN_MOTION_DOT":"0.00001966","CLASSIFICATION_TYPE":"U","ECCENTRICITY":"0.00012610","GP_ID":"214047629","MEAN_ANOMALY":"281.2419","CENTER_NAME":"EARTH","PERIAPSIS":"546.338","REV_AT_EPOCH":"10299","NORAD_CAT_ID":"47148","OBJECT_TYPE":"PAYLOAD","COUNTRY_CODE":"US","RA_OF_ASC_NODE":"160.3607","OBJECT_NAME":"STARLINK-1861","APOAPSIS":"548.084","RCS_SIZE":"LARGE","PERIOD":"95.592","TLE_LINE2":"2 47148  53.0520 160.3607 0001261  78.8712 281.2419 15.06400776102991","OBJECT_ID":"2020-088AC","REF_FRAME":"TEME","SITE":"AFETR","TIME_SYSTEM":"UTC","LAUNCH_DATE":"2020-11-25","DECAY_DATE":null,"MEAN_MOTION_DDOT":"0.0000000000000","MEAN_ELEMENT_THEORY":"SGP4","SEMIMAJOR_AXIS":"6925.346"},{"APOAPSIS":"548.241","RCS_SIZE":"LARGE","COUNTRY_CODE":"US","RA_OF_ASC_NODE":"170.2233","OBJECT_NAME":"STARLINK-1862","NORAD_CAT_ID":"47149","OBJECT_TYPE":"PAYLOAD","LAUNCH_DATE":"2020-11-25","TIME_SYSTEM":"UTC","SEMIMAJOR_AXIS":"6925.374","MEAN_ELEMENT_THEORY":"SGP4","DECAY_DATE":null,"MEAN_MOTION_DDOT":"0.0000000000000","TLE_LINE2":"2 47149  53.0551 170.2233 0001447 100.1318 259.9834 15.06391843103592","PERIOD":"95.593","REF_FRAME":"TEME","SITE":"AFETR","OBJECT_ID":"2020-088AD","MEAN_MOTION_DOT":"-0.00001318","CLASSIFICATION_TYPE":"U","MEAN_MOTION":"15.06391843","INCLINATION":"53.0551","ECCENTRICITY":"0.00014470","EPOCH":"2022-10-02T20:56:10.322016","ELEMENT_SET_NO":"999","EPHEMERIS_TYPE":"0","BSTAR":"-0.00006964100000","ARG_OF_PERICENTER":"100.1318","TLE_LINE1":"1 47149U 20088AD  22275.87234169 -.00001318  00000-0 -69641-4 0  9996","FILE":"3589751","MEAN_ANOMALY":"259.9834","CENTER_NAME":"EARTH","PERIAPSIS":"546.236","REV_AT_EPOCH":"10359","GP_ID":"214048876"},{"COUNTRY_CODE":"US","RA_OF_ASC_NODE":"160.2456","OBJECT_NAME":"STARLINK-1863","APOAPSIS":"548.184","RCS_SIZE":"LARGE","NORAD_CAT_ID":"47150","OBJECT_TYPE":"PAYLOAD","TIME_SYSTEM":"UTC","LAUNCH_DATE":"2020-11-25","DECAY_DATE":null,"MEAN_MOTION_DDOT":"0.0000000000000","MEAN_ELEMENT_THEORY":"SGP4","SEMIMAJOR_AXIS":"6925.323","PERIOD":"95.592","TLE_LINE2":"2 47150  53.0534 160.2456 0001437  88.8998 271.2156 15.06408223103007","OBJECT_ID":"2020-088AE","REF_FRAME":"TEME","SITE":"AFETR","INCLINATION":"53.0534","MEAN_MOTION":"15.06408223","CLASSIFICATION_TYPE":"U","MEAN_MOTION_DOT":"0.00001119","ECCENTRICITY":"0.00014370","BSTAR":"0.00009398300000","ELEMENT_SET_NO":"999","EPHEMERIS_TYPE":"0","EPOCH":"2022-10-02T20:46:52.387968","FILE":"3589751","TLE_LINE1":"1 47150U 20088AE  22275.86588412  .00001119  00000-0  93983-4 0  9993","ARG_OF_PERICENTER":"88.8998","MEAN_ANOMALY":"271.2156","CENTER_NAME":"EARTH","PERIAPSIS":"546.193","REV_AT_EPOCH":"10300","GP_ID":"214049113"},{"SEMIMAJOR_AXIS":"6925.337","MEAN_ELEMENT_THEORY":"SGP4","MEAN_MOTION_DDOT":"0.0000000000000","DECAY_DATE":null,"LAUNCH_DATE":"2020-11-25","TIME_SYSTEM":"UTC","SITE":"AFETR","REF_FRAME":"TEME","OBJECT_ID":"2020-088AF","TLE_LINE2":"2 47151  53.0546 170.2625 0001321  87.2210 272.8930 15.06403625102852","PERIOD":"95.592","RCS_SIZE":"LARGE","APOAPSIS":"548.117","RA_OF_ASC_NODE":"170.2625","OBJECT_NAME":"STARLINK-1864","COUNTRY_CODE":"US","OBJECT_TYPE":"PAYLOAD","NORAD_CAT_ID":"47151","REV_AT_EPOCH":"10285","PERIAPSIS":"546.288","CENTER_NAME":"EARTH","MEAN_ANOMALY":"272.8930","GP_ID":"214047880","ECCENTRICITY":"0.00013210","CLASSIFICATION_TYPE":"U","MEAN_MOTION_DOT":"-0.00000888","MEAN_MOTION":"15.06403625","INCLINATION":"53.0546","ARG_OF_PERICENTER":"87.2210","TLE_LINE1":"1 47151U 20088AF  22275.86497074 -.00000888  00000-0 -40747-4 0  9991","FILE":"3589751","ELEMENT_SET_NO":"999","EPOCH":"2022-10-02T20:45:33.471936","EPHEMERIS_TYPE":"0","BSTAR":"-0.00004074700000"},{"OBJECT_TYPE":"PAYLOAD","NORAD_CAT_ID":"47152","OBJECT_NAME":"STARLINK-1866","RA_OF_ASC_NODE":"170.3048","COUNTRY_CODE":"US","RCS_SIZE":"LARGE","APOAPSIS":"548.145","OBJECT_ID":"2020-088AG","SITE":"AFETR","REF_FRAME":"TEME","PERIOD":"95.591","TLE_LINE2":"2 47152  53.0518 170.3048 0001403 102.0620 258.0526 15.06413129102851","MEAN_MOTION_DDOT":"0.0000000000000","DECAY_DATE":null,"SEMIMAJOR_AXIS":"6925.308","MEAN_ELEMENT_THEORY":"SGP4","TIME_SYSTEM":"UTC","LAUNCH_DATE":"2020-11-25","FILE":"3589751","ARG_OF_PERICENTER":"102.0620","TLE_LINE1":"1 47152U 20088AG  22275.84927444  .00005021  00000-0  35558-3 0  9994","BSTAR":"0.00035558000000","EPOCH":"2022-10-02T20:22:57.311616","ELEMENT_SET_NO":"999","EPHEMERIS_TYPE":"0","ECCENTRICITY":"0.00014030","MEAN_MOTION":"15.06413129","INCLINATION":"53.0518","CLASSIFICATION_TYPE":"U","MEAN_MOTION_DOT":"0.00005021","GP_ID":"214048129","REV_AT_EPOCH":"10285","PERIAPSIS":"546.202","CENTER_NAME":"EARTH","MEAN_ANOMALY":"258.0526"},{"RCS_SIZE":"LARGE","APOAPSIS":"548.147","OBJECT_NAME":"STARLINK-1867","RA_OF_ASC_NODE":"176.1699","COUNTRY_CODE":"US","OBJECT_TYPE":"PAYLOAD","NORAD_CAT_ID":"47153","MEAN_ELEMENT_THEORY":"SGP4","SEMIMAJOR_AXIS":"6925.354","MEAN_MOTION_DDOT":"0.0000000000000","DECAY_DATE":null,"LAUNCH_DATE":"2020-11-25","TIME_SYSTEM":"UTC","SITE":"AFETR","REF_FRAME":"TEME","OBJECT_ID":"2020-088AH","TLE_LINE2":"2 47153  53.0539 176.1699 0001341  85.6988 274.4154 15.06398351102763","PERIOD":"95.592","ECCENTRICITY":"0.00013410","CLASSIFICATION_TYPE":"U","MEAN_MOTION_DOT":"0.00000681","MEAN_MOTION":"15.06398351","INCLINATION":"53.0539","TLE_LINE1":"1 47153U 20088AH  22275.71525556  .00000681  00000-0  64624-4 0  9993","ARG_OF_PERICENTER":"85.6988","FILE":"3589751","ELEMENT_SET_NO":"999","EPHEMERIS_TYPE":"0","EPOCH":"2022-10-02T17:09:58.080384","BSTAR":"0.00006462400000","REV_AT_EPOCH":"10276","PERIAPSIS":"546.290","CENTER_NAME":"EARTH","MEAN_ANOMALY":"274.4154","GP_ID":"214048377"},{"INCLINATION":"53.0543","MEAN_MOTION":"15.06385682","CLASSIFICATION_TYPE":"U","MEAN_MOTION_DOT":"-0.00000949","ECCENTRICITY":"0.00013310","BSTAR":"-0.00004487500000","ELEMENT_SET_NO":"999","EPOCH":"2022-10-02T19:43:11.435232","EPHEMERIS_TYPE":"0","FILE":"3589751","TLE_LINE1":"1 47154U 20088AJ  22275.82166013 -.00000949  00000-0 -44875-4 0  9990","ARG_OF_PERICENTER":"90.2993","CENTER_NAME":"EARTH","MEAN_ANOMALY":"269.8149","REV_AT_EPOCH":"10299","PERIAPSIS":"546.336","GP_ID":"214048614","OBJECT_NAME":"STARLINK-1868","RA_OF_ASC_NODE":"160.4391","COUNTRY_CODE":"US","RCS_SIZE":"LARGE","APOAPSIS":"548.179","NORAD_CAT_ID":"47154","OBJECT_TYPE":"PAYLOAD","TIME_SYSTEM":"UTC","LAUNCH_DATE":"2020-11-25","MEAN_MOTION_DDOT":"0.0000000000000","DECAY_DATE":null,"SEMIMAJOR_AXIS":"6925.392","MEAN_ELEMENT_THEORY":"SGP4","PERIOD":"95.593","TLE_LINE2":"2 47154  53.0543 160.4391 0001331  90.2993 269.8149 15.06385682102991","OBJECT_ID":"2020-088AJ","SITE":"AFETR","REF_FRAME":"TEME"},{"RA_OF_ASC_NODE":"182.0949","OBJECT_NAME":"STARLINK-1869","COUNTRY_CODE":"US","RCS_SIZE":"LARGE","APOAPSIS":"548.131","OBJECT_TYPE":"PAYLOAD","NORAD_CAT_ID":"47155","MEAN_MOTION_DDOT":"0.0000000000000","DECAY_DATE":null,"MEAN_ELEMENT_THEORY":"SGP4","SEMIMAJOR_AXIS":"6925.397","TIME_SYSTEM":"UTC","LAUNCH_DATE":"2020-11-25","OBJECT_ID":"2020-088AK","SITE":"AFETR","REF_FRAME":"TEME","PERIOD":"95.593","TLE_LINE2":"2 47155  53.0550 182.0949 0001255  87.5749 272.5384 15.06384283102901","ECCENTRICITY":"0.00012550","MEAN_MOTION":"15.06384283","INCLINATION":"53.0550","MEAN_MOTION_DOT":"-0.00002212","CLASSIFICATION_TYPE":"U","FILE":"3589304","TLE_LINE1":"1 47155U 20088AK  22275.45859806 -.00002212  00000-0 -12971-3 0  9995","ARG_OF_PERICENTER":"87.5749","BSTAR":"-0.00012971000000","EPHEMERIS_TYPE":"0","ELEMENT_SET_NO":"999","EPOCH":"2022-10-02T11:00:22.872384","REV_AT_EPOCH":"10290","PERIAPSIS":"546.393","CENTER_NAME":"EARTH","MEAN_ANOMALY":"272.5384","GP_ID":"213991527"}];
